satname,norad_id,inclination_deg,eccentricity,mean_motion_rev_per_day,perigee_km,apogee_km,l1,l2
STARLINK-1234,45190,53.037,0.0007029,15.71529019,349.7940467512708,359.25882500943135,1 45190U 20012N   26138.91185998  .00046863  00000+0  36061-3 0  9999,2 45190  53.0370 339.3089 0007029 159.7295 200.4002 15.71529019346898
STARLINK-1269,45197,53.1564,0.0002985,15.33169719,464.31925655156647,468.40542265731074,1 45197U 20012V   26138.52808107  .00030339  00000+0  94117-3 0  9994,2 45197  53.1564  74.7415 0002985  67.0824 293.0493 15.33169719345615
STARLINK-1154,45198,53.0435,0.0002614,15.56827116,395.0756430356605,398.61760447416054,1 45198U 20012W   26138.43884613  .00053971  00000+0  74072-3 0  9996,2 45198  53.0435  34.4060 0002614  52.8324 307.2925 15.56827116346129
STARLINK-1199,45201,53.1584,0.0002747,15.33124047,464.6180500757282,468.37849269382787,1 45201U 20012Z   26138.49866920  .00024393  00000+0  76064-3 0  9997,2 45201  53.1584  59.1404 0002747 112.8118 247.3175 15.33124047345859
STARLINK-1209,45206,53.0404,0.0010227,15.62810781,372.6311914433345,386.4533486222599,1 45206U 20012AE  26137.98791758  .00066738  00000+0  72541-3 0  9996,2 45206  53.0404 357.2233 0010227 145.8764 214.2909 15.62810781345713
STARLINK-1231,45212,53.0382,0.0003996,15.26461749,483.6565169986952,489.1426546380817,1 45212U 20012AL  26138.45661145  .00021549  00000+0  82622-3 0  9994,2 45212  53.0382  53.8954 0003996  43.7573 316.3741 15.26461749345863
STARLINK-1271,45217,53.1589,0.000254,15.33277449,464.3033123695377,467.7801551662915,1 45217U 20012AR  26138.75915232  .00029436  00000+0  91053-3 0  9992,2 45217  53.1589  58.0699 0002540 100.8241 259.3047 15.33277449345890
STARLINK-1191,45222,53.158,0.0004572,15.36954947,451.99575581545014,458.2440859439039,1 45222U 20012AW  26138.39950616  .00028367  00000+0  78105-3 0  9998,2 45222  53.1580  33.3168 0004572 115.8816 244.2659 15.36954947346212
STARLINK-1212,45223,53.0412,0.0004152,15.6498483,370.4791991525126,376.0855778127079,1 45223U 20012AX  26138.91926249  .00034067  00000+0  34469-3 0  9991,2 45223  53.0412   8.4770 0004152  91.9773 268.1717 15.64984830346594
STARLINK-1215,45225,53.1587,0.0002589,15.33354852,464.0395064002696,467.5833028841935,1 45225U 20012AZ  26138.43370332  .00021706  00000+0  67348-3 0  9994,2 45225  53.1587  33.8689 0002589 137.7144 222.4058 15.33354852346169
STARLINK-1221,45227,53.0646,0.0002184,15.44156339,432.3703918606825,435.34587133416426,1 45227U 20012BB  26138.72916930  .00010284  00000+0  22969-3 0  9997,2 45227  53.0646 297.1051 0002184 201.3927 158.6988 15.44156339347527
STARLINK-1222,45228,53.054,9.33e-05,15.5373765,405.19166561463953,406.4575528509231,1 45228U 20012BC  26138.89126742  .00023703  00000+0  36986-3 0  9994,2 45228  53.0540   5.1305 0000933  57.8772 302.2328 15.53737650346527
STARLINK-1226,45229,53.1563,0.0003427,15.41687491,438.7916851502305,443.4656098250198,1 45229U 20012BD  26138.12271357  .00036879  00000+0  86624-3 0  9996,2 45229  53.1563  32.6364 0003427 126.8734 233.2586 15.41687491346095
STARLINK-1227,45230,53.1548,0.0004055,15.41812569,437.9947757704549,443.52490110642793,1 45230U 20012BE  26138.13413149  .00039077  00000+0  91318-3 0  9995,2 45230  53.1548  32.7111 0004055 125.7099 234.4285 15.41812569346210
STARLINK-1246,45235,53.1573,0.0003208,15.33269228,463.87057785824163,468.2618186302352,1 45235U 20012BK  26138.20949257  .00026887  00000+0  83313-3 0  9993,2 45235  53.1573  75.8658 0003208 112.6992 247.4349 15.33269228345621
STARLINK-1270,45237,53.0411,0.0003535,15.58401843,389.8885413838725,394.6752275351846,1 45237U 20012BM  26138.92556590  .00072918  00000+0  93900-3 0  9997,2 45237  53.0411   9.0076 0003535 125.4657 234.6685 15.58401843346584
STARLINK-1279,45360,53.0354,0.0009274,15.71544574,348.2381787589911,360.7258404980503,1 45360U 20019A   26138.19091815  .00043356  00000+0  33357-3 0  9998,2 45360  53.0354 117.6809 0009274  41.7727 318.3997 15.71544574341553
STARLINK-1301,45361,53.0367,0.000656,15.73804788,343.6220797964106,352.44681673653577,1 45361U 20019B   26138.32592271  .00045566  00000+0  31858-3 0  9995,2 45361  53.0367 119.9916 0006560  60.0676 300.0993 15.73804788341545
STARLINK-1262,45366,53.1539,0.0003466,15.32286003,466.62049201128866,471.36692301773746,1 45366U 20019G   26138.88414535  .00026413  00000+0  84426-3 0  9996,2 45366  53.1539 199.0294 0003466  11.4545 348.6535 15.32286003340501
STARLINK-1273,45367,53.0443,0.000617,15.54227204,400.215157404984,408.5848080416645,1 45367U 20019H   26138.32600990  .00041419  00000+0  62777-3 0  9996,2 45367  53.0443 180.9285 0006170 348.2688  11.8177 15.54227204340691
STARLINK-1277,45369,53.0431,0.0006713,15.60574499,381.45574125009716,390.53726689266387,1 45369U 20019K   26138.81387708  .00067139  00000+0  79667-3 0  9994,2 45369  53.0431 173.5634 0006713 340.7716  19.3042 15.60574499340847
STARLINK-1281,45370,53.1556,0.0004293,15.33178519,463.39781696242426,469.2744816083996,1 45370U 20019L   26138.45140125  .00024596  00000+0  76545-3 0  9998,2 45370  53.1556 200.8024 0004293   7.3320 352.7744 15.33178519340445
STARLINK-1300,45374,53.1567,0.0004253,15.33601253,462.16789548284214,467.9887344297449,1 45374U 20019Q   26138.86028619  .00016496  00000+0  51090-3 0  9998,2 45374  53.1567 198.8573 0004253  24.1696 335.9505 15.33601253340506
STARLINK-1302,45375,53.0441,0.0005226,15.65199229,369.1378709470446,376.1938100759471,1 45375U 20019R   26138.79489836  .00027600  00000+0  27809-3 0  9993,2 45375  53.0441 170.2909 0005226   6.7983 353.3101 15.65199229340887
STARLINK-1304,45376,53.0417,0.0006319,15.59897308,383.6785241920934,392.2295100195106,1 45376U 20019S   26138.79833379  .00066977  00000+0  81568-3 0  9991,2 45376  53.0417 170.8885 0006319   5.3055 354.8023 15.59897308340873
STARLINK-1305,45377,53.0368,0.0010748,15.65508077,364.52312402790085,379.0327411670132,1 45377U 20019T   26138.41559076  .00029046  00000+0  28816-3 0  9993,2 45377  53.0368 152.5828 0010748   9.6889 350.4331 15.65508077341106
STARLINK-1319,45379,53.0391,0.0005165,15.74000289,344.0037009048401,350.95126066348985,1 45379U 20019V   26138.90112436  .00051835  00000+0  35868-3 0  9990,2 45379  53.0391 142.7133 0005165  26.0455 334.0822 15.74000289341287
STARLINK-1266,45383,53.0437,0.0005763,15.56089147,395.08280284839657,402.89411765388286,1 45383U 20019Z   26138.76636101  .00058049  00000+0  81742-3 0  9995,2 45383  53.0437 156.1710 0005763 357.1133   2.9844 15.56089147341070
STARLINK-1267,45384,53.0444,0.0007839,15.62127125,376.2148757956302,386.8126562666139,1 45384U 20019AA  26138.43180804  .00061873  00000+0  69220-3 0  9990,2 45384  53.0444 149.2304 0007839  35.1747 324.9783 15.62127125341144
STARLINK-1272,45386,53.0394,0.0008795,15.67276876,360.7663433293592,372.63050884384575,1 45386U 20019AC  26138.38461196  .00034957  00000+0  32209-3 0  9992,2 45386  53.0394 128.9300 0008795  27.2075 332.9399 15.67276876341424
STARLINK-1274,45387,53.0213,0.0009511,15.58088878,386.7482717265448,399.62868705344044,1 45387U 20019AD  26138.93976653  .00069300  00000+0  90220-3 0  9990,2 45387  53.0213 124.2009 0009511  51.9038 308.2829 15.58088878341539
STARLINK-1280,45388,53.0365,0.000596,15.74609878,341.73411646099885,349.74897969030644,1 45388U 20019AE  26138.41283238  .00049277  00000+0  33237-3 0  9990,2 45388  53.0365 137.6213 0005960  35.4089 324.7324 15.74609878341293
STARLINK-1283,45389,53.0386,0.0004587,15.68477438,360.16390358495846,366.348457688875,1 45389U 20019AF  26138.35545784  .00034702  00000+0  30498-3 0  9994,2 45389  53.0386 128.3551 0004587  52.0516 308.0914 15.68477438341437
STARLINK-1284,45390,53.0394,0.0005133,15.67542388,362.47503990862606,369.3985060439636,1 45390U 20019AG  26138.74107956  .00031869  00000+0  29142-3 0  9999,2 45390  53.0394 150.1711 0005133 345.5994  14.4875 15.67542388341156
STARLINK-1297,45395,53.0405,0.0006902,15.65992932,365.7267808529332,375.0424400840229,1 45395U 20019AM  26138.92654619  .00032762  00000+0  31850-3 0  9999,2 45395  53.0405 148.0533 0006902 354.3513   5.7423 15.65992932340380
STARLINK-1307,45397,53.0515,0.0002473,15.55148295,400.0449293338861,403.39824739169035,1 45397U 20019AP  26138.77245336  .00019048  00000+0  28391-3 0  9994,2 45397  53.0515 153.0493 0002473  36.6014 323.5165 15.55148295340940
STARLINK-1255,45399,53.0352,0.0006503,15.63040729,374.485391666396,383.2735672996114,1 45399U 20019AR  26138.66851073  .00069091  00000+0  74495-3 0  9994,2 45399  53.0352 122.7408 0006503  42.1432 318.0081 15.63040729341347
STARLINK-1260,45404,53.1559,0.0005927,15.35787897,454.52910183047516,462.63334761406077,1 45404U 20019AW  26138.79103822  .00025482  00000+0  72957-3 0  9994,2 45404  53.1559 162.3194 0005927  17.6909 342.4299 15.35787897340727
STARLINK-1263,45405,53.1568,0.000442,15.3327102,463.03573004291684,469.0860009560183,1 45405U 20019AX  26138.79170043  .00024544  00000+0  76165-3 0  9997,2 45405  53.1568 163.1924 0004420  34.2681 325.8606 15.33271020340717
STARLINK-1265,45406,53.1561,0.0005502,15.36176599,453.6669754642544,461.1888310838158,1 45406U 20019AY  26138.78842877  .00034706  00000+0  97638-3 0  9997,2 45406  53.1561 162.3738 0005502   8.9961 351.1140 15.36176599340720
STARLINK-1278,45408,53.0387,0.0007,15.66758356,363.4640568940313,372.9089097706965,1 45408U 20019BA  26138.45417520  .00031398  00000+0  29628-3 0  9994,2 45408  53.0387 149.4469 0007000  13.2231 346.8966 15.66758356340860
STARLINK-1296,45412,53.1553,0.0006349,15.36346981,452.58293522661734,461.26209379814554,1 45412U 20019BE  26138.76581764  .00030067  00000+0  84309-3 0  9994,2 45412  53.1553 162.2032 0006349   9.0164 351.0952 15.36346981340725
STARLINK-1309,45414,53.0596,0.0006785,15.66087607,365.5339405588011,374.69131530390496,1 45414U 20019BG  26138.71856150  .00029174  00000+0  28327-3 0  9990,2 45414  53.0596 141.9126 0006785 352.9000   7.1918 15.66087607340972
